NORAD_CAT_ID,OBJECT_NAME,OBJECT_TYPE,EPOCH,MEAN_MOTION,ECCENTRICITY,INCLINATION,RA_OF_ASC_NODE,ARG_OF_PERICENTER,MEAN_ANOMALY,BSTAR,MEAN_MOTION_DOT,MEAN_MOTION_DDOT,TLE_LINE0,TLE_LINE1,TLE_LINE2,SEMIMAJOR_AXIS,PERIOD,APOGEE,PERIGEE,DECAYED
54100.0,STARLINK-5185,PAYLOAD,2024-03-09 19:50:35,15.08836024,0.0001478,53.2171,10.3122,85.9504,274.1657,0.00014578,2.033e-05,0.0,0 STARLINK-5185,1 54100U 22136BB  24069.82680455  .00002033  00000-0  14578-3 0  9999,2 54100  53.2171  10.3122 0001478  85.9504 274.1657 15.08836024 77273,6917.893,95.438,540.78,538.735,0.0
54100.0,STARLINK-5185,PAYLOAD,2024-03-10 05:22:54,15.08846238,0.0001384,53.216,8.5273,100.2929,259.822,0.00013081,1.795e-05,0.0,0 STARLINK-5185,1 54100U 22136BB  24070.22423885  .00001795  00000-0  13081-3 0  9999,2 54100  53.2160   8.5273 0001384 100.2929 259.8220 15.08846238 77336,6917.861,95.437,540.684,538.769,0.0
54100.0,STARLINK-5185,PAYLOAD,2024-03-10 13:19:50,15.088362,0.0001724,53.2165,7.0398,104.6624,255.4559,-1.8304e-05,-5.79e-06,0.0,0 STARLINK-5185,1 54100U 22136BB  24070.55544438 -.00000579  00000-0 -18304-4 0  9998,2 54100  53.2165   7.0398 0001724 104.6624 255.4559 15.08836200 76919,6917.892,95.438,540.95,538.564,0.0
54100.0,STARLINK-5185,PAYLOAD,2024-03-11 05:13:41,15.08843514,0.0001568,53.2184,4.0662,100.9416,259.1753,-5.7828e-07,-2.97e-06,0.0,0 STARLINK-5185,1 54100U 22136BB  24071.21784190 -.00000297  00000-0 -57828-6 0  9996,2 54100  53.2184   4.0662 0001568 100.9416 259.1753 15.08843514 77010,6917.87,95.437,540.819,538.65,0.0
54100.0,STARLINK-5185,PAYLOAD,2024-03-12 05:04:28,15.0884025,0.0001409,53.2177,359.6056,101.2713,258.8438,3.8235e-05,3.21e-06,0.0,0 STARLINK-5185,1 54100U 22136BB  24072.21144554  .00000321  00000-0  38235-4 0  9996,2 54100  53.2177 359.6056 0001409 101.2713 258.8438 15.08840250 77634,6917.88,95.438,540.719,538.77,0.0
54100.0,STARLINK-5185,PAYLOAD,2024-03-12 19:22:57,15.08837329,0.0001388,53.2177,356.9293,108.7045,251.4098,0.00010815,1.434e-05,0.0,0 STARLINK-5185,1 54100U 22136BB  24072.80760807  .00001434  00000-0  10815-3 0  9995,2 54100  53.2177 356.9293 0001388 108.7045 251.4098 15.08837329 77255,6917.889,95.438,540.714,538.793,0.0
54100.0,STARLINK-5185,PAYLOAD,2024-03-13 11:16:48,15.08846425,0.00014,53.2178,353.9587,97.3873,262.7278,0.000127,1.734e-05,0.0,0 STARLINK-5185,1 54100U 22136BB  24073.47000224  .00001734  00000-0  12700-3 0  9997,2 54100  53.2178 353.9587 0001400  97.3873 262.7278 15.08846425 77821,6917.861,95.437,540.694,538.757,0.0
54100.0,STARLINK-5185,PAYLOAD,2024-03-13 22:24:30,15.08839098,0.0001459,53.2187,351.878,88.3953,271.7206,-5.6759e-05,-1.191e-05,0.0,0 STARLINK-5185,1 54100U 22136BB  24073.93368812 -.00001191  00000-0 -56759-4 0  9990,2 54100  53.2187 351.8780 0001459  88.3953 271.7206 15.08839098 77421,6917.883,95.438,540.757,538.739,0.0
54100.0,STARLINK-5185,PAYLOAD,2024-03-14 03:10:39,15.08844437,0.0001634,53.2196,350.9871,90.991,269.1269,7.2345e-06,-1.73e-06,0.0,0 STARLINK-5185,1 54100U 22136BB  24074.13240542 -.00000173  00000-0  72345-5 0  9990,2 54100  53.2196 350.9871 0001634  90.9910 269.1269 15.08844437 77927,6917.867,95.437,540.862,538.601,0.0
54100.0,STARLINK-5185,PAYLOAD,2024-03-14 22:15:17,15.08837321,0.0001699,53.2196,347.4174,109.9651,250.1524,-5.0727e-05,-1.095e-05,0.0,0 STARLINK-5185,1 54100U 22136BB  24074.92728964 -.00001095  00000-0 -50727-4 0  9990,2 54100  53.2196 347.4174 0001699 109.9651 250.1524 15.08837321 77577,6917.889,95.438,540.929,538.578,0.0
54100.0,STARLINK-5185,PAYLOAD,2024-03-15 04:36:50,15.08843456,0.000154,53.2199,346.2254,101.7485,258.368,4.7795e-05,4.73e-06,0.0,0 STARLINK-5185,1 54100U 22136BB  24075.19224950  .00000473  00000-0  47795-4 0  9994,2 54100  53.2199 346.2254 0001540 101.7485 258.3680 15.08843456 78082,6917.87,95.437,540.8,538.669,0.0
54100.0,STARLINK-5185,PAYLOAD,2024-03-15 17:19:55,15.08832864,0.0001273,53.2188,343.8476,92.2524,267.8614,0.00017162,2.444e-05,0.0,0 STARLINK-5185,1 54100U 22136BB  24075.72217402  .00002444  00000-0  17162-3 0  9991,2 54100  53.2188 343.8476 0001273  92.2524 267.8614 15.08832864 78162,6917.902,95.438,540.648,538.887,0.0
54100.0,STARLINK-5185,PAYLOAD,2024-03-15 22:06:05,15.08834882,0.0001343,53.2197,342.9542,83.5459,276.5686,0.0001889,2.719e-05,0.0,0 STARLINK-5185,1 54100U 22136BB  24075.92089361  .00002719  00000-0  18890-3 0  9998,2 54100  53.2197 342.9542 0001343  83.5459 276.5686 15.08834882 77723,6917.896,95.438,540.69,538.832,0.0
54100.0,STARLINK-5185,PAYLOAD,2024-03-16 01:16:51,15.08843189,0.0001405,53.2177,342.3612,93.6995,266.4158,0.00012826,1.754e-05,0.0,0 STARLINK-5185,1 54100U 22136BB  24076.05336894  .00001754  00000-0  12826-3 0  9990,2 54100  53.2177 342.3612 0001405  93.6995 266.4158 15.08843189 78216,6917.871,95.437,540.708,538.764,0.0
54100.0,STARLINK-5185,PAYLOAD,2024-03-16 17:10:42,15.08839271,0.0001652,53.2179,339.3923,69.5716,290.5454,3.848e-05,3.24e-06,0.0,0 STARLINK-5185,1 54100U 22136BB  24076.71577429  .00000324  00000-0  38480-4 0  9991,2 54100  53.2179 339.3923 0001652  69.5716 290.5454 15.08839271 78311,6917.883,95.438,540.89,538.605,0.0
54100.0,STARLINK-5185,PAYLOAD,2024-03-16 21:56:52,15.08837184,0.0001558,53.2186,338.4984,72.3265,287.7898,4.618e-05,4.47e-06,0.0,0 STARLINK-5185,1 54100U 22136BB  24076.91449899  .00000447  00000-0  46180-4 0  9994,2 54100  53.2186 338.4984 0001558  72.3265 287.7898 15.08837184 77873,6917.889,95.438,540.832,538.676,0.0
54100.0,STARLINK-5185,PAYLOAD,2024-03-17 01:07:38,15.08838959,0.0001551,53.2189,337.9042,75.9461,284.1703,4.1973e-05,3.8e-06,0.0,0 STARLINK-5185,1 54100U 22136BB  24077.04697791  .00000380  00000-0  41973-4 0  9996,2 54100  53.2189 337.9042 0001551  75.9461 284.1703 15.08838959 77894,6917.884,95.438,540.822,538.676,0.0
54100.0,STARLINK-5185,PAYLOAD,2024-03-17 21:47:39,15.0883222,0.0001783,53.2191,334.0384,67.3395,292.7785,0.0003158,4.74e-05,0.0,0 STARLINK-5185,1 54100U 22136BB  24077.90809598  .00004740  00000-0  31580-3 0  9997,2 54100  53.2191 334.0384 0001783  67.3395 292.7785 15.08832220 78028,6917.904,95.438,541.003,538.536,0.0
54100.0,STARLINK-5185,PAYLOAD,2024-03-17 23:23:02,15.08821505,0.0001927,53.2191,333.7409,68.4494,291.6703,0.00050979,7.83e-05,0.0,0 STARLINK-5185,1 54100U 22136BB  24077.97433990  .00007830  00000-0  50979-3 0  9999,2 54100  53.2191 333.7409 0001927  68.4494 291.6703 15.08821505 78509,6917.937,95.439,541.135,538.469,0.0
54100.0,STARLINK-5185,PAYLOAD,2024-03-18 21:38:26,15.08838611,0.0001677,53.2194,329.578,70.6321,289.4852,6.2972e-05,7.14e-06,0.0,0 STARLINK-5185,1 54100U 22136BB  24078.90169748  .00000714  00000-0  62972-4 0  9991,2 54100  53.2194 329.5780 0001677  70.6321 289.4852 15.08838611 78172,6917.885,95.438,540.91,538.59,0.0
54100.0,STARLINK-5185,PAYLOAD,2024-03-18 23:13:49,15.08839599,0.0001637,53.2193,329.2803,73.1484,286.9687,6.7766e-05,7.91e-06,0.0,0 STARLINK-5185,1 54100U 22136BB  24078.96793630  .00000791  00000-0  67766-4 0  9991,2 54100  53.2193 329.2803 0001637  73.1484 286.9687 15.08839599 78183,6917.882,95.438,540.879,538.614,0.0
54100.0,STARLINK-5185,PAYLOAD,2024-03-19 21:29:12,15.0885737,0.0001357,53.2182,325.1163,86.1683,273.9464,0.00013191,1.813e-05,0.0,0 STARLINK-5185,1 54100U 22136BB  24079.89527993  .00001813  00000-0  13191-3 0  9999,2 54100  53.2182 325.1163 0001357  86.1683 273.9464 15.08857370 78792,6917.827,95.436,540.631,538.754,0.0
54100.0,STARLINK-5185,PAYLOAD,2024-03-19 23:04:35,15.08864396,0.0001741,53.2181,324.8161,121.5559,238.5604,0.00026785,3.98e-05,0.0,0 STARLINK-5185,1 54100U 22136BB  24079.96151655  .00003980  00000-0  26785-3 0  9995,2 54100  53.2181 324.8161 0001741 121.5559 238.5604 15.08864396 78809,6917.806,95.436,540.875,538.466,0.0
54100.0,STARLINK-5185,PAYLOAD,2024-03-20 21:20:00,15.08836918,0.00014,53.2168,320.6561,108.436,251.6784,-5.7443e-05,-1.202e-05,0.0,0 STARLINK-5185,1 54100U 22136BB  24080.88889162 -.00001202  00000-0 -57443-4 0  9992,2 54100  53.2168 320.6561 0001400 108.4360 251.6784 15.08836918 78947,6917.89,95.438,540.723,538.786,0.0
54100.0,STARLINK-5185,PAYLOAD,2024-03-20 22:55:23,15.08831555,0.0001235,53.216,320.3533,103.0978,257.0152,-9.6508e-05,-1.823e-05,0.0,0 STARLINK-5185,1 54100U 22136BB  24080.95513387 -.00001823  00000-0 -96508-4 0  9997,2 54100  53.2160 320.3533 0001235 103.0978 257.0152 15.08831555 78487,6917.906,95.438,540.626,538.917,0.0
54100.0,STARLINK-5185,PAYLOAD,2024-03-21 14:49:15,15.08831384,0.0001555,53.2175,317.3823,108.7535,251.3626,-0.00016635,-2.934e-05,0.0,0 STARLINK-5185,1 54100U 22136BB  24081.61753784 -.00002934  00000-0 -16635-3 0  9994,2 54100  53.2175 317.3823 0001555 108.7535 251.3626 15.08831384 78581,6917.907,95.438,540.847,538.696,0.0
54100.0,STARLINK-5185,PAYLOAD,2024-03-21 21:10:47,15.08841961,0.0001479,53.2163,316.1936,103.0716,257.0441,1.752e-05,-9e-08,0.0,0 STARLINK-5185,1 54100U 22136BB  24081.88249218 -.00000009  00000-0  17520-4 0  9990,2 54100  53.2163 316.1936 0001479 103.0716 257.0441 15.08841961 78629,6917.874,95.437,540.763,538.716,0.0
54100.0,STARLINK-5185,PAYLOAD,2024-03-22 21:01:34,15.08841226,0.0001384,53.216,311.7336,100.7921,259.3227,0.00033857,5.105e-05,0.0,0 STARLINK-5185,1 54100U 22136BB  24082.87609586  .00005105  00000-0  33857-3 0  9999,2 54100  53.2160 311.7336 0001384 100.7921 259.3227 15.08841226 79248,6917.877,95.437,540.699,538.784,0.0
54100.0,STARLINK-5185,PAYLOAD,2024-03-22 22:36:57,15.08845288,0.0001452,53.2167,311.4388,102.8891,257.2263,0.00036761,5.568e-05,0.0,0 STARLINK-5185,1 54100U 22136BB  24082.94233490  .00005568  00000-0  36761-3 0  9994,2 54100  53.2167 311.4388 0001452 102.8891 257.2263 15.08845288 78781,6917.864,95.437,540.734,538.725,0.0
54100.0,STARLINK-5185,PAYLOAD,2024-03-23 20:52:21,15.08841044,0.0001338,53.2159,307.2754,81.6737,278.4407,6.2676e-05,7.1e-06,0.0,0 STARLINK-5185,1 54100U 22136BB  24083.86969693  .00000710  00000-0  62676-4 0  9996,2 54100  53.2159 307.2754 0001338  81.6737 278.4407 15.08841044 79397,6917.877,95.437,540.668,538.817,0.0
